[
    {
        "Altitude(m)": 557544.6769075987,
        "Argument of Periapsis(deg)": 0.013245982221427002,
        "Eccentricity": 0.0,
        "Inclination(deg)": 53.0,
        "Latitude(deg)": 42.75823629773468,
        "Longitude(deg)": -50.44217642166922,
        "Mean Anomaly(deg)": -237.99861426484486,
        "RAAN(deg)": 274.980286737056,
        "Satellite Name": "Starlink Shell 1 1216",
        "Satellite Number": 1216,
        "Semi-Major Axis(m)": 6931778.249405717,
        "Time(s)": 380
    },
    {
        "Altitude(m)": 557464.6296363971,
        "Argument of Periapsis(deg)": 0.013594560700938237,
        "Eccentricity": 0.0,
        "Inclination(deg)": 53.0,
        "Latitude(deg)": 42.394406041595396,
        "Longitude(deg)": -49.79102811207857,
        "Mean Anomaly(deg)": -237.3717830612881,
        "RAAN(deg)": 274.97976796697856,
        "Satellite Name": "Starlink Shell 1 1216",
        "Satellite Number": 1216,
        "Semi-Major Axis(m)": 6931778.249405717,
        "Time(s)": 390
    },
    {
        "Altitude(m)": 557384.0156321188,
        "Argument of Periapsis(deg)": 0.013943139180449475,
        "Eccentricity": 0.0,
        "Inclination(deg)": 53.0,
        "Latitude(deg)": 42.0264187639087,
        "Longitude(deg)": -49.147870338168936,
        "Mean Anomaly(deg)": -236.74495185773142,
        "RAAN(deg)": 274.9792491969011,
        "Satellite Name": "Starlink Shell 1 1216",
        "Satellite Number": 1216,
        "Semi-Major Axis(m)": 6931778.249405717,
        "Time(s)": 400
    },
    {
        "Altitude(m)": 557302.8862991923,
        "Argument of Periapsis(deg)": 0.014291717659960712,
        "Eccentricity": 0.0,
        "Inclination(deg)": 53.0,
        "Latitude(deg)": 41.65437356870391,
        "Longitude(deg)": -48.5125965082009,
        "Mean Anomaly(deg)": -236.11812065417467,
        "RAAN(deg)": 274.97873042682363,
        "Satellite Name": "Starlink Shell 1 1216",
        "Satellite Number": 1216,
        "Semi-Major Axis(m)": 6931778.249405717,
        "Time(s)": 410
    },
    {
        "Altitude(m)": 557221.29351339,
        "Argument of Periapsis(deg)": 0.014640296139471948,
        "Eccentricity": 0.0,
        "Inclination(deg)": 53.0,
        "Latitude(deg)": 41.278367705213505,
        "Longitude(deg)": -47.885097888803244,
        "Mean Anomaly(deg)": -235.491289450618,
        "RAAN(deg)": 274.9782116567461,
        "Satellite Name": "Starlink Shell 1 1216",
        "Satellite Number": 1216,
        "Semi-Major Axis(m)": 6931778.249405717,
        "Time(s)": 420
    },
    {
        "Altitude(m)": 557139.289595625,
        "Argument of Periapsis(deg)": 0.014988874618983185,
        "Eccentricity": 0.0,
        "Inclination(deg)": 53.0,
        "Latitude(deg)": 40.89849656220068,
        "Longitude(deg)": -47.26526342408503,
        "Mean Anomaly(deg)": -234.86445824706124,
        "RAAN(deg)": 274.97769288666865,
        "Satellite Name": "Starlink Shell 1 1216",
        "Satellite Number": 1216,
        "Semi-Major Axis(m)": 6931778.249405717,
        "Time(s)": 430
    },
    {
        "Altitude(m)": 557056.9272855533,
        "Argument of Periapsis(deg)": 0.015337453098494424,
        "Eccentricity": 0.0,
        "Inclination(deg)": 53.0,
        "Latitude(deg)": 40.514853666716135,
        "Longitude(deg)": -46.652979536628955,
        "Mean Anomaly(deg)": -234.2376270435045,
        "RAAN(deg)": 274.97717411659124,
        "Satellite Name": "Starlink Shell 1 1216",
        "Satellite Number": 1216,
        "Semi-Major Axis(m)": 6931778.249405717,
        "Time(s)": 440
    },
    {
        "Altitude(m)": 556974.259714891,
        "Argument of Periapsis(deg)": 0.01568603157800566,
        "Eccentricity": 0.0,
        "Inclination(deg)": 53.0,
        "Latitude(deg)": 40.12753068692589,
        "Longitude(deg)": -46.048131423591364,
        "Mean Anomaly(deg)": -233.61079583994783,
        "RAAN(deg)": 274.9766553465137,
        "Satellite Name": "Starlink Shell 1 1216",
        "Satellite Number": 1216,
        "Semi-Major Axis(m)": 6931778.249405717,
        "Time(s)": 450
    },
    {
        "Altitude(m)": 556891.3403805238,
        "Argument of Periapsis(deg)": 0.0160346100575169,
        "Eccentricity": 0.0,
        "Inclination(deg)": 53.0,
        "Latitude(deg)": 39.73661743867301,
        "Longitude(deg)": -45.450602822586504,
        "Mean Anomaly(deg)": -232.9839646363911,
        "RAAN(deg)": 274.9761365764362,
        "Satellite Name": "Starlink Shell 1 1216",
        "Satellite Number": 1216,
        "Semi-Major Axis(m)": 6931778.249405717,
        "Time(s)": 460
    },
    {
        "Altitude(m)": 556808.2231173754,
        "Argument of Periapsis(deg)": 0.016383188537028134,
        "Eccentricity": 0.0,
        "Inclination(deg)": 53.0,
        "Latitude(deg)": 39.34220189544654,
        "Longitude(deg)": -44.86027576069867,
        "Mean Anomaly(deg)": -232.35713343283444,
        "RAAN(deg)": 274.9756178063588,
        "Satellite Name": "Starlink Shell 1 1216",
        "Satellite Number": 1216,
        "Semi-Major Axis(m)": 6931778.249405717,
        "Time(s)": 470
    },
    {
        "Altitude(m)": 556724.9620710795,
        "Argument of Periapsis(deg)": 0.01673176701653937,
        "Eccentricity": 0.0,
        "Inclination(deg)": 53.0,
        "Latitude(deg)": 38.94437020144607,
        "Longitude(deg)": -44.2770318000065,
        "Mean Anomaly(deg)": -231.73030222927764,
        "RAAN(deg)": 274.97509903628134,
        "Satellite Name": "Starlink Shell 1 1216",
        "Satellite Number": 1216,
        "Semi-Major Axis(m)": 6931778.249405717,
        "Time(s)": 480
    },
    {
        "Altitude(m)": 556641.6116704517,
        "Argument of Periapsis(deg)": 0.017080345496050607,
        "Eccentricity": 0.0,
        "Inclination(deg)": 53.0,
        "Latitude(deg)": 38.54320668745353,
        "Longitude(deg)": -43.7007517544268,
        "Mean Anomaly(deg)": -231.10347102572095,
        "RAAN(deg)": 274.9745802662038,
        "Satellite Name": "Starlink Shell 1 1216",
        "Satellite Number": 1216,
        "Semi-Major Axis(m)": 6931778.249405717,
        "Time(s)": 490
    },
    {
        "Altitude(m)": 556558.2265997885,
        "Argument of Periapsis(deg)": 0.017428923975561842,
        "Eccentricity": 0.0,
        "Inclination(deg)": 53.0,
        "Latitude(deg)": 38.13879388923106,
        "Longitude(deg)": -43.13131539132202,
        "Mean Anomaly(deg)": -230.47663982216426,
        "RAAN(deg)": 274.97406149612635,
        "Satellite Name": "Starlink Shell 1 1216",
        "Satellite Number": 1216,
        "Semi-Major Axis(m)": 6931778.249405717,
        "Time(s)": 500
    },
    {
        "Altitude(m)": 556474.8617709877,
        "Argument of Periapsis(deg)": 0.01777750245507308,
        "Eccentricity": 0.0,
        "Inclination(deg)": 53.0,
        "Latitude(deg)": 37.731212568185164,
        "Longitude(deg)": -42.56860263133909,
        "Mean Anomaly(deg)": -229.8498086186075,
        "RAAN(deg)": 274.9735427260489,
        "Satellite Name": "Starlink Shell 1 1216",
        "Satellite Number": 1216,
        "Semi-Major Axis(m)": 6931778.249405717,
        "Time(s)": 510
    },
    {
        "Altitude(m)": 556391.5722954973,
        "Argument of Periapsis(deg)": 0.018126080934584315,
        "Eccentricity": 0.0,
        "Inclination(deg)": 53.0,
        "Latitude(deg)": 37.32054173405237,
        "Longitude(deg)": -42.01249322134056,
        "Mean Anomaly(deg)": -229.22297741505082,
        "RAAN(deg)": 274.9730239559714,
        "Satellite Name": "Starlink Shell 1 1216",
        "Satellite Number": 1216,
        "Semi-Major Axis(m)": 6931778.249405717,
        "Time(s)": 520
    },
    {
        "Altitude(m)": 556308.4134561718,
        "Argument of Periapsis(deg)": 0.018474659414095554,
        "Eccentricity": 0.0,
        "Inclination(deg)": 53.0,
        "Latitude(deg)": 36.90685866937706,
        "Longitude(deg)": -41.46286639391581,
        "Mean Anomaly(deg)": -228.5961462114941,
        "RAAN(deg)": 274.97250518589397,
        "Satellite Name": "Starlink Shell 1 1216",
        "Satellite Number": 1216,
        "Semi-Major Axis(m)": 6931778.249405717,
        "Time(s)": 530
    },
    {
        "Altitude(m)": 556225.4406789307,
        "Argument of Periapsis(deg)": 0.018823237893606792,
        "Eccentricity": 0.0,
        "Inclination(deg)": 53.0,
        "Latitude(deg)": 36.49023895556297,
        "Longitude(deg)": -40.91960202695838,
        "Mean Anomaly(deg)": -227.9693150079374,
        "RAAN(deg)": 274.97198641581645,
        "Satellite Name": "Starlink Shell 1 1216",
        "Satellite Number": 1216,
        "Semi-Major Axis(m)": 6931778.249405717,
        "Time(s)": 540
    },
    {
        "Altitude(m)": 556142.709504374,
        "Argument of Periapsis(deg)": 0.019171816373118027,
        "Eccentricity": 0.0,
        "Inclination(deg)": 53.0,
        "Latitude(deg)": 36.07075650030226,
        "Longitude(deg)": -40.382580278179944,
        "Mean Anomaly(deg)": -227.34248380438066,
        "RAAN(deg)": 274.971467645739,
        "Satellite Name": "Starlink Shell 1 1216",
        "Satellite Number": 1216,
        "Semi-Major Axis(m)": 6931778.249405717,
        "Time(s)": 550
    },
    {
        "Altitude(m)": 556060.275559223,
        "Argument of Periapsis(deg)": 0.019520394852629266,
        "Eccentricity": 0.0,
        "Inclination(deg)": 53.0,
        "Latitude(deg)": 35.648483566194436,
        "Longitude(deg)": -39.85168120804289,
        "Mean Anomaly(deg)": -226.71565260082394,
        "RAAN(deg)": 274.9709488756616,
        "Satellite Name": "Starlink Shell 1 1216",
        "Satellite Number": 1216,
        "Semi-Major Axis(m)": 6931778.249405717,
        "Time(s)": 560
    }
]